{
    "links": {
        "self": "http://www.neowsapp.com/rest/v1/neo/3467256?api_key=iIulBulltgU6a56xZRHN4H3l9WmuAYTsLGpBGhQ2"
    },
    "id": "3467256",
    "neo_reference_id": "3467256",
    "name": "(2009 SF2)",
    "designation": "2009 SF2",
    "nasa_jpl_url": "http://ssd.jpl.nasa.gov/sbdb.cgi?sstr=3467256",
    "absolute_magnitude_h": 20.8,
    "estimated_diameter": {
        "kilometers": {
            "estimated_diameter_min": 0.1838886721,
            "estimated_diameter_max": 0.411187571
        },
        "meters": {
            "estimated_diameter_min": 183.8886720703,
            "estimated_diameter_max": 411.1875710413
        },
        "miles": {
            "estimated_diameter_min": 0.1142630881,
            "estimated_diameter_max": 0.2555000322
        },
        "feet": {
            "estimated_diameter_min": 603.309310875,
            "estimated_diameter_max": 1349.040630575
        }
    },
    "is_potentially_hazardous_asteroid": false,
    "close_approach_data": [
        {
            "close_approach_date": "2009-10-25",
            "close_approach_date_full": "2009-Oct-25 10:21",
            "epoch_date_close_approach": 1256466060000,
            "relative_velocity": {
                "kilometers_per_second": "3.2123967159",
                "kilometers_per_hour": "11564.6281772422",
                "miles_per_hour": "7185.8102137981"
            },
            "miss_distance": {
                "astronomical": "0.2826416385",
                "lunar": "109.9475973765",
                "kilometers": "42282587.092909995",
                "miles": "26273181.315928131"
            },
            "orbiting_body": "Earth"
        }
    ],
    "orbital_data": {
        "orbit_id": "18",
        "orbit_determination_date": "2017-04-06 08:59:56",
        "first_observation_date": "2009-09-18",
        "last_observation_date": "2009-12-05",
        "data_arc_in_days": 78,
        "observations_used": 68,
        "orbit_uncertainty": "5",
        "minimum_orbit_intersection": ".271803",
        "jupiter_tisserand_invariant": "3.480",
        "epoch_osculation": "2459000.5",
        "eccentricity": ".447251549612395",
        "semi_major_axis": "2.252060723387994",
        "inclination": "6.40212584205885",
        "ascending_node_longitude": "334.001207878719",
        "orbital_period": "1234.435979789692",
        "perihelion_distance": "1.244823075031502",
        "perihelion_argument": "60.56314428296917",
        "aphelion_distance": "3.259298371744485",
        "perihelion_time": "2458830.898775866070",
        "mean_anomaly": "49.46100218062077",
        "mean_motion": ".2916311626475214",
        "equinox": "J2000",
        "orbit_class": {
            "orbit_class_type": "AMO",
            "orbit_class_description": "Near-Earth asteroid orbits similar to that of 1221 Amor",
            "orbit_class_range": "1.017 AU < q (perihelion) < 1.3 AU"
        }
    },
    "is_sentry_object": false
}